[{"OBJECT_NAME":"TIANMU-1 20","OBJECT_ID":"2023-208B","EPOCH":"2026-03-09T21:50:45.859200","MEAN_MOTION":15.31029249,"ECCENTRICITY":0.00061925,"INCLINATION":97.4323,"RA_OF_ASC_NODE":185.4313,"ARG_OF_PERICENTER":324.1763,"MEAN_ANOMALY":35.9062,"EPHEMERIS_TYPE":0,"CLASSIFICATION_TYPE":"U","NORAD_CAT_ID":58661,"ELEMENT_SET_NO":999,"REV_AT_EPOCH":12222,"BSTAR":0.0003681641,"MEAN_MOTION_DOT":0.00010969,"MEAN_MOTION_DDOT":0},{"OBJECT_NAME":"STARLINK-33843","OBJECT_ID":"2025-071Q","EPOCH":"2026-03-09T12:26:52.433952","MEAN_MOTION":15.30190705,"ECCENTRICITY":0.00013713,"INCLINATION":53.1604,"RA_OF_ASC_NODE":140.6904,"ARG_OF_PERICENTER":71.6545,"MEAN_ANOMALY":288.4605,"EPHEMERIS_TYPE":0,"CLASSIFICATION_TYPE":"U","NORAD_CAT_ID":63507,"ELEMENT_SET_NO":999,"REV_AT_EPOCH":5272,"BSTAR":0.0011375767,"MEAN_MOTION_DOT":0.00033475,"MEAN_MOTION_DDOT":0}]
